#dV2023  1 10 10  0  0.00000000    1682       CTS   FIT  GFZ
## 2244 208800.00000000    30.00000000 59954 0.4166666666667
+    1   L65  0  0  0  0  0  0  0  0  0  0  0  0  0  0  0  0
+          0  0  0  0  0  0  0  0  0  0  0  0  0  0  0  0  0
+          0  0  0  0  0  0  0  0  0  0  0  0  0  0  0  0  0
+          0  0  0  0  0  0  0  0  0  0  0  0  0  0  0  0  0
+          0  0  0  0  0  0  0  0  0  0  0  0  0  0  0  0  0
++         0  0  0  0  0  0  0  0  0  0  0  0  0  0  0  0  0
++         0  0  0  0  0  0  0  0  0  0  0  0  0  0  0  0  0
++         0  0  0  0  0  0  0  0  0  0  0  0  0  0  0  0  0
++         0  0  0  0  0  0  0  0  0  0  0  0  0  0  0  0  0
++         0  0  0  0  0  0  0  0  0  0  0  0  0  0  0  0  0
%c L  cc GPS ccc cccc cccc cccc cccc ccccc ccccc ccccc ccccc
%c cc cc ccc ccc cccc cccc cccc cccc ccccc ccccc ccccc ccccc
%f  0.0000000  0.000000000  0.00000000000  0.000000000000000
%f  0.0000000  0.000000000  0.00000000000  0.000000000000000
%i    0    0    0    0      0      0      0      0         0
%i    0    0    0    0      0      0      0      0         0
/* CCCCCCCCCCCCCCCCCCCCCCCCCCCCCCCCCCCCCCCCCCCCCCCCCCCCCCCCCCCCCCCCCCCCCCCCCCCCC
/* C                             GFZ RSO-ORBIT                                 C
/* C DOI: https://doi.org/10.5880/GFZ_ORBIT/RSO/L65_G_v02                      C
/* C                                                                           C
/* C DORIS        RMS: not applicable                                          C
/* C GNSS-E Code  RMS: not applicable                                          C
/* C GNSS-E Phase RMS: not applicable                                          C
/* C GNSS-G Code  RMS:  49.638 [cm]   Obs.acc.:     14059 Obs.eli.:      1234  C
/* C GNSS-G Phase RMS:   4.065 [mm]   Obs.acc.:     14059 Obs.eli.:      1234  C
/* C SLR          RMS:   3.681 [cm]   Obs.acc.:        83 Obs.eli.:         0  C
/* C                                                                           C
/* CCCCCCCCCCCCCCCCCCCCCCCCCCCCCCCCCCCCCCCCCCCCCCCCCCCCCCCCCCCCCCCCCCCCCCCCCCCCC
*  2023  1 10 15 31 30.00000000
PL65   4148.963034   2083.064858  -5063.324955  27444.694954
VL65  50783.867985  23931.475983  51432.567920 999999.999999
*  2023  1 10 15 32  0.00000000
PL65   4299.161379   2153.371192  -4906.253044  27445.161780
VL65  49338.409137  22936.146371  53272.440607 999999.999999
*  2023  1 10 15 32 30.00000000
PL65   4444.934526   2220.662809  -4743.748924  27445.628704
VL65  47833.989262  21921.890340  55053.702147 999999.999999
*  2023  1 10 15 33  0.00000000
PL65   4586.107903   2284.884967  -4575.991442  27446.095614
VL65  46272.161062  20890.067423  56774.354786 999999.999999
*  2023  1 10 15 33 30.00000000
PL65   4722.511706   2345.987021  -4403.165341  27446.562639
VL65  44654.549354  19842.051532  58432.464026 999999.999999
*  2023  1 10 15 34  0.00000000
PL65   4853.981110   2403.922469  -4225.461071  27447.030120
VL65  42982.850822  18779.229097  60026.162481 999999.999999
*  2023  1 10 15 34 30.00000000
PL65   4980.356488   2458.648985  -4043.074576  27447.497795
VL65  41258.831108  17702.996572  61553.654361 999999.999999
*  2023  1 10 15 35  0.00000000
PL65   5101.483604   2510.128442  -3856.207076  27447.965013
VL65  39484.320131  16614.757949  63013.217419 999999.999999
*  2023  1 10 15 35 30.00000000
PL65   5217.213806   2558.326936  -3665.064852  27448.432037
VL65  37661.209234  15515.923218  64403.201644 999999.999999
*  2023  1 10 15 36  0.00000000
PL65   5327.404212   2603.214801  -3469.859027  27448.898981
VL65  35791.452931  14407.908197  65722.028221 999999.999999
*  2023  1 10 15 36 30.00000000
PL65   5431.917897   2644.766626  -3270.805346  27449.365736
VL65  33877.071494  13292.133716  66968.194503 999999.999999
*  2023  1 10 15 37  0.00000000
PL65   5530.624096   2682.961266  -3068.123942  27449.832452
VL65  31920.147569  12170.022433  68140.280970 999999.999999
*  2023  1 10 15 37 30.00000000
PL65   5623.398377   2717.781845  -2862.039077  27450.299276
VL65  29922.820288  11042.996037  69236.953823 999999.999999
*  2023  1 10 15 38  0.00000000
PL65   5710.122804   2749.215747  -2652.778883  27450.766153
VL65  27887.280772   9912.473454  70256.965654 999999.999999
*  2023  1 10 15 38 30.00000000
PL65   5790.686088   2777.254604  -2440.575108  27451.233046
VL65  25815.769023   8779.868871  71199.154929 999999.999999
*  2023  1 10 15 39  0.00000000
PL65   5864.983733   2801.894286  -2225.662854  27451.699962
VL65  23710.573335   7646.590117  72062.446290 999999.999999
*  2023  1 10 15 39 30.00000000
PL65   5932.918178   2823.134871  -2008.280318  27452.166810
VL65  21574.028622   6514.036902  72845.853082 999999.999999
*  2023  1 10 15 40  0.00000000
PL65   5994.398932   2840.980623  -1788.668520  27452.633542
VL65  19408.513235   5383.599103  73548.478925 999999.999999
*  2023  1 10 15 40 30.00000000
PL65   6049.342704   2855.439960  -1567.071034  27453.100217
VL65  17216.446094   4256.655167  74169.518717 999999.999999
*  2023  1 10 15 41  0.00000000
PL65   6097.673513   2866.525414  -1343.733710  27453.567071
VL65  15000.283996   3134.570437  74708.259548 999999.999999
*  2023  1 10 15 41 30.00000000
PL65   6139.322804   2874.253593  -1118.904398  27454.033958
VL65  12762.519566   2018.695674  75164.082382 999999.999999
*  2023  1 10 15 42  0.00000000
PL65   6174.229552   2878.645133   -892.832659  27454.500851
VL65  10505.677749    910.364986  75536.464716 999999.999999
*  2023  1 10 15 42 30.00000000
PL65   6202.340345   2879.724642   -665.769478  27454.967776
VL65   8232.310959   -189.106783  75824.981476 999999.999999
*  2023  1 10 15 43  0.00000000
PL65   6223.609468   2877.520645   -437.966967  27455.434613
VL65   5944.995266  -1278.426694  76029.304311 999999.999999
*  2023  1 10 15 43 30.00000000
PL65   6237.998964   2872.065504   -209.678082  27455.901473
VL65   3646.327510  -2356.325964  76149.200834 999999.999999
*  2023  1 10 15 44  0.00000000
PL65   6245.478696   2863.395354     18.843671  27456.368320
VL65   1338.922703  -3421.561327  76184.534242 999999.999999
*  2023  1 10 15 44 30.00000000
PL65   6246.026393   2851.550018    247.344516  27456.835150
VL65   -974.588824  -4472.915426  76135.263110 999999.999999
*  2023  1 10 15 45  0.00000000
PL65   6239.627699   2836.572935    475.570696  27457.302069
VL65  -3291.563771  -5509.196671  76001.441465 999999.999999
*  2023  1 10 15 45 30.00000000
PL65   6226.276201   2818.511077    703.268762  27457.768947
VL65  -5609.348598  -6529.239798  75783.220358 999999.999999
*  2023  1 10 15 46  0.00000000
PL65   6205.973457   2797.414872    930.185865  27458.235757
VL65  -7925.283924  -7531.907954  75480.848861 999999.999999
*  2023  1 10 15 46 30.00000000
PL65   6178.729008   2773.338111   1156.070048  27458.702580
VL65 -10236.708422  -8516.095361  75094.673578 999999.999999
*  2023  1 10 15 47  0.00000000
PL65   6144.560377   2746.337854   1380.670542  27459.169429
VL65 -12540.962574  -9480.729600  74625.137722 999999.999999
*  2023  1 10 15 47 30.00000000
PL65   6103.493058   2716.474326   1603.738049  27459.636356
VL65 -14835.391713 -10424.772660  74072.779110 999999.999999
*  2023  1 10 15 48  0.00000000
PL65   6055.560500   2683.810814   1825.025023  27460.103257
VL65 -17117.347739 -11347.221342  73438.230061 999999.999999
*  2023  1 10 15 48 30.00000000
PL65   6000.804082   2648.413560   2044.285963  27460.570146
VL65 -19384.193094 -12247.108839  72722.218425 999999.999999
*  2023  1 10 15 49  0.00000000
PL65   5939.273074   2610.351652   2261.277690  27461.037060
VL65 -21633.306008 -13123.506718  71925.566113 999999.999999
*  2023  1 10 15 49 30.00000000
PL65   5871.024582   2569.696900   2475.759629  27461.503957
VL65 -23862.084145 -13975.525911  71049.186054 999999.999999
*  2023  1 10 15 50  0.00000000
PL65   5796.123486   2526.523726   2687.494078  27461.970903
VL65 -26067.946705 -14802.316786  70094.080444 999999.999999
*  2023  1 10 15 50 30.00000000
PL65   5714.642374   2480.909039   2896.246475  27462.437823
VL65 -28248.337462 -15603.069670  69061.340583 999999.999999
*  2023  1 10 15 51  0.00000000
PL65   5626.661462   2432.932116   3101.785663  27462.904693
VL65 -30400.728701 -16377.015815  67952.145344 999999.999999
*  2023  1 10 15 51 30.00000000
PL65   5532.268500   2382.674479   3303.884153  27463.371523
VL65 -32522.623550 -17123.428068  66767.758700 999999.999999
*  2023  1 10 15 52  0.00000000
PL65   5431.558683   2330.219767   3502.318369  27463.838398
VL65 -34611.557519 -17841.621849  65509.528754 999999.999999
*  2023  1 10 15 52 30.00000000
PL65   5324.634545   2275.653609   3696.868912  27464.305293
VL65 -36665.102592 -18530.955822  64178.888466 999999.999999
*  2023  1 10 15 53  0.00000000
PL65   5211.605840   2219.063491   3887.320803  27464.772234
VL65 -38680.876211 -19190.832424  62777.353081 999999.999999
*  2023  1 10 15 53 30.00000000
PL65   5092.589395   2160.538626   4073.463719  27465.239112
VL65 -40656.544115 -19820.699578  61306.508819 999999.999999
*  2023  1 10 15 54  0.00000000
PL65   4967.708978   2100.169811   4255.092198  27465.706026
VL65 -42589.810558 -20420.050859  59768.009244 999999.999999
*  2023  1 10 15 54 30.00000000
PL65   4837.095192   2038.049300   4432.005847  27466.172914
VL65 -44478.418083 -20988.424509  58163.584385 999999.999999
*  2023  1 10 15 55  0.00000000
PL65   4700.885339   1974.270661   4604.009584  27466.639800
VL65 -46320.158396 -21525.402743  56495.042087 999999.999999
*  2023  1 10 15 55 30.00000000
PL65   4559.223264   1908.928654   4770.913861  27467.106629
VL65 -48112.878464 -22030.611451  54764.263316 999999.999999
*  2023  1 10 15 56  0.00000000
PL65   4412.259184   1842.119093   4932.534875  27467.573409
VL65 -49854.483979 -22503.721373  52973.197381 999999.999999
*  2023  1 10 15 56 30.00000000
PL65   4260.149511   1773.938710   5088.694769  27468.040388
VL65 -51542.940176 -22944.448869  51123.856900 999999.999999
EOF
